{
  "links" : {
    "next" : "https://api.nasa.gov/neo/rest/v1/feed?start_date=1999-05-23&end_date=1999-05-23&detailed=true&api_key=t0TVs3DtDT2H8Oy2Zy8m2eVrNsAVKAexjcZXUckd",
    "prev" : "https://api.nasa.gov/neo/rest/v1/feed?start_date=1999-05-21&end_date=1999-05-21&detailed=true&api_key=t0TVs3DtDT2H8Oy2Zy8m2eVrNsAVKAexjcZXUckd",
    "self" : "https://api.nasa.gov/neo/rest/v1/feed?start_date=1999-05-22&end_date=1999-05-22&detailed=true&api_key=t0TVs3DtDT2H8Oy2Zy8m2eVrNsAVKAexjcZXUckd"
  },
  "element_count" : 5,
  "near_earth_objects" : {
    "1999-05-22" : [ {
      "links" : {
        "self" : "https://api.nasa.gov/neo/rest/v1/neo/3065824?api_key=t0TVs3DtDT2H8Oy2Zy8m2eVrNsAVKAexjcZXUckd"
      },
      "neo_reference_id" : "3065824",
      "name" : "(2000 WM63)",
      "nasa_jpl_url" : "http://ssd.jpl.nasa.gov/sbdb.cgi?sstr=3065824",
      "absolute_magnitude_h" : 20.6,
      "estimated_diameter" : {
        "kilometers" : {
          "estimated_diameter_min" : 0.2016299194,
          "estimated_diameter_max" : 0.4508582062
        },
        "meters" : {
          "estimated_diameter_min" : 201.6299194428,
          "estimated_diameter_max" : 450.8582061718
        },
        "miles" : {
          "estimated_diameter_min" : 0.1252869847,
          "estimated_diameter_max" : 0.2801502144
        },
        "feet" : {
          "estimated_diameter_min" : 661.5155049046,
          "estimated_diameter_max" : 1479.1936371367
        }
      },
      "is_potentially_hazardous_asteroid" : false,
      "close_approach_data" : [ {
        "close_approach_date" : "1999-05-22",
        "epoch_date_close_approach" : 927356400000,
        "relative_velocity" : {
          "kilometers_per_second" : "12.5027780887",
          "kilometers_per_hour" : "45010.0011193661",
          "miles_per_hour" : "27967.4643066417"
        },
        "miss_distance" : {
          "astronomical" : "0.1390877972",
          "lunar" : "54.1051521301",
          "kilometers" : "20807238",
          "miles" : "12929018"
        },
        "orbiting_body" : "Earth"
      } ],
      "orbital_data" : {
        "orbit_id" : "17",
        "orbit_determination_date" : "2017-04-06 09:16:40",
        "orbit_uncertainty" : "2",
        "minimum_orbit_intersection" : ".120206",
        "jupiter_tisserand_invariant" : "5.878",
        "epoch_osculation" : "2458000.5",
        "eccentricity" : ".1565637951038587",
        "semi_major_axis" : "1.029846307745644",
        "inclination" : "20.13600658022596",
        "ascending_node_longitude" : "74.52097419344584",
        "orbital_period" : "381.730667116645",
        "perihelion_distance" : ".8686096614312894",
        "perihelion_argument" : "214.5741571554734",
        "aphelion_distance" : "1.191082954059998",
        "perihelion_time" : "2457844.600670515883",
        "mean_anomaly" : "147.0244951452447",
        "mean_motion" : ".9430733001338749",
        "equinox" : "J2000"
      }
    }, {
      "links" : {
        "self" : "https://api.nasa.gov/neo/rest/v1/neo/3182828?api_key=t0TVs3DtDT2H8Oy2Zy8m2eVrNsAVKAexjcZXUckd"
      },
      "neo_reference_id" : "3182828",
      "name" : "(2004 KF15)",
      "nasa_jpl_url" : "http://ssd.jpl.nasa.gov/sbdb.cgi?sstr=3182828",
      "absolute_magnitude_h" : 20.8,
      "estimated_diameter" : {
        "kilometers" : {
          "estimated_diameter_min" : 0.1838886721,
          "estimated_diameter_max" : 0.411187571
        },
        "meters" : {
          "estimated_diameter_min" : 183.8886720703,
          "estimated_diameter_max" : 411.1875710413
        },
        "miles" : {
          "estimated_diameter_min" : 0.1142630881,
          "estimated_diameter_max" : 0.2555000322
        },
        "feet" : {
          "estimated_diameter_min" : 603.309310875,
          "estimated_diameter_max" : 1349.040630575
        }
      },
      "is_potentially_hazardous_asteroid" : false,
      "close_approach_data" : [ {
        "close_approach_date" : "1999-05-22",
        "epoch_date_close_approach" : 927356400000,
        "relative_velocity" : {
          "kilometers_per_second" : "5.9800259556",
          "kilometers_per_hour" : "21528.0934402815",
          "miles_per_hour" : "13376.7200601571"
        },
        "miss_distance" : {
          "astronomical" : "0.3164335554",
          "lunar" : "123.0926513672",
          "kilometers" : "47337784",
          "miles" : "29414336"
        },
        "orbiting_body" : "Earth"
      } ],
      "orbital_data" : {
        "orbit_id" : "27",
        "orbit_determination_date" : "2017-04-06 09:12:43",
        "orbit_uncertainty" : "1",
        "minimum_orbit_intersection" : ".192038",
        "jupiter_tisserand_invariant" : "3.932",
        "epoch_osculation" : "2458000.5",
        "eccentricity" : ".3546250899583373",
        "semi_major_axis" : "1.829982381047112",
        "inclination" : "11.07704427090757",
        "ascending_node_longitude" : "229.1212081195576",
        "orbital_period" : "904.2089250640157",
        "perihelion_distance" : "1.181024714546108",
        "perihelion_argument" : "34.58814773829111",
        "aphelion_distance" : "2.478940047548116",
        "perihelion_time" : "2457691.124999673408",
        "mean_anomaly" : "123.1739668016307",
        "mean_motion" : ".3981380740900262",
        "equinox" : "J2000"
      }
    }, {
      "links" : {
        "self" : "https://api.nasa.gov/neo/rest/v1/neo/3566463?api_key=t0TVs3DtDT2H8Oy2Zy8m2eVrNsAVKAexjcZXUckd"
      },
      "neo_reference_id" : "3566463",
      "name" : "(2011 KE3)",
      "nasa_jpl_url" : "http://ssd.jpl.nasa.gov/sbdb.cgi?sstr=3566463",
      "absolute_magnitude_h" : 23.9,
      "estimated_diameter" : {
        "kilometers" : {
          "estimated_diameter_min" : 0.04411182,
          "estimated_diameter_max" : 0.0986370281
        },
        "meters" : {
          "estimated_diameter_min" : 44.1118199997,
          "estimated_diameter_max" : 98.6370281305
        },
        "miles" : {
          "estimated_diameter_min" : 0.0274098057,
          "estimated_diameter_max" : 0.0612901888
        },
        "feet" : {
          "estimated_diameter_min" : 144.7238235278,
          "estimated_diameter_max" : 323.6123073718
        }
      },
      "is_potentially_hazardous_asteroid" : false,
      "close_approach_data" : [ {
        "close_approach_date" : "1999-05-22",
        "epoch_date_close_approach" : 927356400000,
        "relative_velocity" : {
          "kilometers_per_second" : "5.2756942082",
          "kilometers_per_hour" : "18992.4991494174",
          "miles_per_hour" : "11801.2003742588"
        },
        "miss_distance" : {
          "astronomical" : "0.2684014916",
          "lunar" : "104.4081878662",
          "kilometers" : "40152292",
          "miles" : "24949478"
        },
        "orbiting_body" : "Earth"
      } ],
      "orbital_data" : {
        "orbit_id" : "21",
        "orbit_determination_date" : "2017-09-13 06:17:48",
        "orbit_uncertainty" : "0",
        "minimum_orbit_intersection" : ".130842",
        "jupiter_tisserand_invariant" : "4.329",
        "epoch_osculation" : "2458000.5",
        "eccentricity" : ".2874319360629768",
        "semi_major_axis" : "1.584357293574335",
        "inclination" : "8.632794808187542",
        "ascending_node_longitude" : "231.4787594378902",
        "orbital_period" : "728.4137212256197",
        "perihelion_distance" : "1.128962409266766",
        "perihelion_argument" : "29.63498338756586",
        "aphelion_distance" : "2.039752177881904",
        "perihelion_time" : "2457912.532138454604",
        "mean_anomaly" : "43.47588359958068",
        "mean_motion" : ".4942246274469796",
        "equinox" : "J2000"
      }
    } ]
  }
}